NORAD_CAT_ID,OBJECT_NAME,OBJECT_TYPE,EPOCH,MEAN_MOTION,ECCENTRICITY,INCLINATION,RA_OF_ASC_NODE,ARG_OF_PERICENTER,MEAN_ANOMALY,BSTAR,MEAN_MOTION_DOT,MEAN_MOTION_DDOT,TLE_LINE0,TLE_LINE1,TLE_LINE2,SEMIMAJOR_AXIS,PERIOD,APOGEE,PERIGEE,DECAYED
52089.0,STARLINK-3722,PAYLOAD,2024-03-31 12:27:28,15.08843008,0.000139,53.22,28.2238,104.4975,255.6172,0.0001098,1.46e-05,0.0,0 STARLINK-3722,1 52089U 22029B   24091.51908109  .00001460  00000-0  10980-3 0  9990,2 52089  53.2200  28.2238 0001390 104.4975 255.6172 15.08843008113747,6917.871,95.437,540.698,538.775,0.0
52089.0,STARLINK-3722,PAYLOAD,2024-04-01 04:21:21,15.08832195,0.0001301,53.2198,25.2503,90.6102,269.504,-9.0732e-06,-4.32e-06,0.0,0 STARLINK-3722,1 52089U 22029B   24092.18149431 -.00000432  00000-0 -90732-5 0  9994,2 52089  53.2198  25.2503 0001301  90.6102 269.5040 15.08832195113849,6917.904,95.438,540.669,538.869,0.0
52089.0,STARLINK-3722,PAYLOAD,2024-04-01 12:18:15,15.08846339,0.000147,53.2208,23.7644,81.5885,278.5273,9.2974e-05,1.192e-05,0.0,0 STARLINK-3722,1 52089U 22029B   24092.51268406  .00001192  00000-0  92974-4 0  9996,2 52089  53.2208  23.7644 0001470  81.5885 278.5273 15.08846339113892,6917.861,95.437,540.743,538.709,0.0
52089.0,STARLINK-3722,PAYLOAD,2024-04-02 04:12:07,15.08842519,0.0001542,53.2204,20.7914,85.791,274.3258,0.00016824,2.391e-05,0.0,0 STARLINK-3722,1 52089U 22029B   24093.17508718  .00002391  00000-0  16824-3 0  9993,2 52089  53.2204  20.7914 0001542  85.7910 274.3258 15.08842519113994,6917.873,95.437,540.804,538.671,0.0
52089.0,STARLINK-3722,PAYLOAD,2024-04-02 12:09:02,15.08847313,0.0001421,53.2201,19.3056,89.9682,270.1473,0.00021223,3.092e-05,0.0,0 STARLINK-3722,1 52089U 22029B   24093.50628178  .00003092  00000-0  21223-3 0  9991,2 52089  53.2201  19.3056 0001421  89.9682 270.1473 15.08847313114047,6917.858,95.437,540.706,538.74,0.0
52089.0,STARLINK-3722,PAYLOAD,2024-04-03 04:02:52,15.08870787,0.0001462,53.2192,16.3282,82.7397,277.3761,0.00033837,5.106e-05,0.0,0 STARLINK-3722,1 52089U 22029B   24094.16866574  .00005106  00000-0  33837-3 0  9990,2 52089  53.2192  16.3282 0001462  82.7397 277.3761 15.08870787114144,6917.786,95.436,540.663,538.64,0.0
52089.0,STARLINK-3722,PAYLOAD,2024-04-03 11:59:47,15.08878045,0.0001729,53.2197,14.8431,68.1221,291.9955,0.00034518,5.215e-05,0.0,0 STARLINK-3722,1 52089U 22029B   24094.49985593  .00005215  00000-0  34518-3 0  9997,2 52089  53.2197  14.8431 0001729  68.1221 291.9955 15.08878045114195,6917.764,95.435,540.825,538.433,0.0
52089.0,STARLINK-3722,PAYLOAD,2024-04-04 03:53:41,15.08840825,0.0002021,53.219,11.8679,80.1151,280.007,-5.1557e-05,-1.109e-05,0.0,0 STARLINK-3722,1 52089U 22029B   24095.16228702 -.00001109  00000-0 -51557-4 0  9997,2 52089  53.2190  11.8679 0002021  80.1151 280.0070 15.08840825114294,6917.878,95.438,541.141,538.345,0.0
52089.0,STARLINK-3722,PAYLOAD,2024-04-04 11:50:36,15.08849344,0.0002165,53.2196,10.3837,78.3565,281.767,2.0222e-05,3.4e-07,0.0,0 STARLINK-3722,1 52089U 22029B   24095.49347875  .00000034  00000-0  20222-4 0  9995,2 52089  53.2196  10.3837 0002165  78.3565 281.7670 15.08849344114342,6917.852,95.437,541.215,538.219,0.0
52089.0,STARLINK-3722,PAYLOAD,2024-04-05 03:44:28,15.08850924,0.0001899,53.2203,7.4066,87.2313,272.8896,-0.0001922,-3.347e-05,0.0,0 STARLINK-3722,1 52089U 22029B   24096.15588208 -.00003347  00000-0 -19220-3 0  9993,2 52089  53.2203   7.4066 0001899  87.2313 272.8896 15.08850924114443,6917.847,95.437,541.026,538.398,0.0
52089.0,STARLINK-3722,PAYLOAD,2024-04-05 18:02:56,15.08831368,0.0002138,53.2194,4.7299,86.2052,273.9184,0.00011767,1.585e-05,0.0,0 STARLINK-3722,1 52089U 22029B   24096.75204397  .00001585  00000-0  11767-3 0  9991,2 52089  53.2194   4.7299 0002138  86.2052 273.9184 15.08831368114539,6917.907,95.438,541.251,538.293,0.0
52089.0,STARLINK-3722,PAYLOAD,2024-04-05 21:13:42,15.08829609,0.0001717,53.219,4.1357,85.0789,275.0399,0.00015431,2.168e-05,0.0,0 STARLINK-3722,1 52089U 22029B   24096.88452381  .00002168  00000-0  15431-3 0  9993,2 52089  53.2190   4.1357 0001717  85.0789 275.0399 15.08829609114558,6917.912,95.438,540.965,538.589,0.0
52089.0,STARLINK-3722,PAYLOAD,2024-04-06 00:24:29,15.08834909,0.0001588,53.2191,3.5414,85.1754,274.9419,3.1545e-06,-2.38e-06,0.0,0 STARLINK-3722,1 52089U 22029B   24097.01700560 -.00000238  00000-0  31545-5 0  9997,2 52089  53.2191   3.5414 0001588  85.1754 274.9419 15.08834909114577,6917.896,95.438,540.86,538.662,0.0
52089.0,STARLINK-3722,PAYLOAD,2024-04-06 22:39:53,15.08828939,0.0001655,53.2193,359.3783,88.0593,272.0589,9.0914e-05,1.159e-05,0.0,0 STARLINK-3722,1 52089U 22029B   24097.94437217  .00001159  00000-0  90914-4 0  9991,2 52089  53.2193 359.3783 0001655  88.0593 272.0589 15.08828939114717,6917.914,95.438,540.924,538.634,0.0
52089.0,STARLINK-3722,PAYLOAD,2024-04-07 09:47:35,15.08837435,0.0001631,53.22,357.297,89.8114,270.3065,8.2199e-05,1.02e-05,0.0,0 STARLINK-3722,1 52089U 22029B   24098.40804929  .00001020  00000-0  82199-4 0  9994,2 52089  53.2200 357.2970 0001631  89.8114 270.3065 15.08837435114781,6917.888,95.438,540.882,538.625,0.0
52089.0,STARLINK-3722,PAYLOAD,2024-04-07 22:30:41,15.08830058,0.0001647,53.2197,354.9223,102.142,257.9757,8.097e-05,1.001e-05,0.0,0 STARLINK-3722,1 52089U 22029B   24098.93797665  .00001001  00000-0  80970-4 0  9994,2 52089  53.2197 354.9223 0001647 102.1420 257.9757 15.08830058114869,6917.911,95.438,540.915,538.636,0.0
52089.0,STARLINK-3722,PAYLOAD,2024-04-08 09:38:22,15.08841531,0.0001602,53.2198,352.8414,102.7505,257.3667,0.00015599,2.196e-05,0.0,0 STARLINK-3722,1 52089U 22029B   24099.40164965  .00002196  00000-0  15599-3 0  9998,2 52089  53.2198 352.8414 0001602 102.7505 257.3667 15.08841531114930,6917.876,95.437,540.849,538.632,0.0
52089.0,STARLINK-3722,PAYLOAD,2024-04-08 23:56:51,15.08838429,0.0001575,53.2199,350.165,102.232,257.8848,0.00012015,1.625e-05,0.0,0 STARLINK-3722,1 52089U 22029B   24099.99781372  .00001625  00000-0  12015-3 0  9995,2 52089  53.2199 350.1650 0001575 102.2320 257.8848 15.08838429115022,6917.885,95.438,540.84,538.661,0.0
52089.0,STARLINK-3722,PAYLOAD,2024-04-09 09:29:09,15.08844921,0.0001492,53.2194,348.3794,97.3931,262.7231,0.00013045,1.789e-05,0.0,0 STARLINK-3722,1 52089U 22029B   24100.39524859  .00001789  00000-0  13045-3 0  9992,2 52089  53.2194 348.3794 0001492  97.3931 262.7231 15.08844921115086,6917.865,95.437,540.762,538.698,0.0
52089.0,STARLINK-3722,PAYLOAD,2024-04-10 09:19:56,15.08844053,0.0001499,53.2182,343.9159,85.4111,274.7053,8.7965e-05,1.112e-05,0.0,0 STARLINK-3722,1 52089U 22029B   24101.38885237  .00001112  00000-0  87965-4 0  9995,2 52089  53.2182 343.9159 0001499  85.4111 274.7053 15.08844053115232,6917.868,95.437,540.77,538.696,0.0
52089.0,STARLINK-3722,PAYLOAD,2024-04-10 20:27:39,15.08831519,0.0001327,53.2187,341.8369,92.3158,267.7986,-3.9099e-06,-3.5e-06,0.0,0 STARLINK-3722,1 52089U 22029B   24101.85254253 -.00000350  00000-0 -39099-5 0  9996,2 52089  53.2187 341.8369 0001327  92.3158 267.7986 15.08831519115303,6917.906,95.438,540.689,538.853,0.0
52089.0,STARLINK-3722,PAYLOAD,2024-04-10 22:03:02,15.08836082,0.0001416,53.2178,341.5387,90.8549,269.2606,-2.9809e-05,-7.62e-06,0.0,0 STARLINK-3722,1 52089U 22029B   24101.91878094 -.00000762  00000-0 -29809-4 0  9992,2 52089  53.2178 341.5387 0001416  90.8549 269.2606 15.08836082115313,6917.892,95.438,540.737,538.778,0.0
52089.0,STARLINK-3722,PAYLOAD,2024-04-11 09:10:43,15.08847397,0.0001395,53.218,339.4558,89.8867,270.2285,7.1144e-05,8.45e-06,0.0,0 STARLINK-3722,1 52089U 22029B   24102.38245078  .00000845  00000-0  71144-4 0  9993,2 52089  53.2180 339.4558 0001395  89.8867 270.2285 15.08847397115382,6917.858,95.437,540.688,538.758,0.0
52089.0,STARLINK-3722,PAYLOAD,2024-04-11 21:53:49,15.08831881,0.0001377,53.2179,337.0762,95.2581,264.8568,7.6712e-05,9.33e-06,0.0,0 STARLINK-3722,1 52089U 22029B   24102.91238185  .00000933  00000-0  76712-4 0  9997,2 52089  53.2179 337.0762 0001377  95.2581 264.8568 15.08831881115468,6917.905,95.438,540.723,538.818,0.0
52089.0,STARLINK-3722,PAYLOAD,2024-04-12 01:04:35,15.08841358,0.0001401,53.2176,336.4811,91.6467,268.4685,3.1252e-05,2.09e-06,0.0,0 STARLINK-3722,1 52089U 22029B   24103.04485789  .00000209  00000-0  31252-4 0  9992,2 52089  53.2176 336.4811 0001401  91.6467 268.4685 15.08841358115486,6917.876,95.437,540.71,538.772,0.0
52089.0,STARLINK-3722,PAYLOAD,2024-04-12 21:44:35,15.0884714,0.0001343,53.2175,332.6153,97.5315,262.5829,0.00012249,1.662e-05,0.0,0 STARLINK-3722,1 52089U 22029B   24103.90597115  .00001662  00000-0  12249-3 0  9992,2 52089  53.2175 332.6153 0001343  97.5315 262.5829 15.08847140115619,6917.859,95.437,540.653,538.794,0.0
52089.0,STARLINK-3722,PAYLOAD,2024-04-13 00:55:22,15.08847389,0.0001356,53.2177,332.0207,100.5706,259.5439,0.00012068,1.634e-05,0.0,0 STARLINK-3722,1 52089U 22029B   24104.03845082  .00001634  00000-0  12068-3 0  9994,2 52089  53.2177 332.0207 0001356 100.5706 259.5439 15.08847389115638,6917.858,95.437,540.661,538.785,0.0
52089.0,STARLINK-3722,PAYLOAD,2024-04-13 21:35:23,15.0884304,0.0001245,53.2169,328.1549,88.5347,271.5788,5.0586e-05,5.17e-06,0.0,0 STARLINK-3722,1 52089U 22029B   24104.89957522  .00000517  00000-0  50586-4 0  9998,2 52089  53.2169 328.1549 0001245  88.5347 271.5788 15.08843040115762,6917.871,95.437,540.597,538.875,0.0
52089.0,STARLINK-3722,PAYLOAD,2024-04-14 21:26:09,15.08826821,0.0001299,53.2164,323.6907,81.5305,278.5834,-0.00022517,-3.868e-05,0.0,0 STARLINK-3722,1 52089U 22029B   24105.89317109 -.00003868  00000-0 -22517-3 0  9996,2 52089  53.2164 323.6907 0001299  81.5305 278.5834 15.08826821115915,6917.921,95.438,540.684,538.887,0.0
52089.0,STARLINK-3722,PAYLOAD,2024-04-15 13:20:02,15.08812746,0.0001412,53.2173,320.7293,84.3527,275.7626,-0.00031749,-5.333e-05,0.0,0 STARLINK-3722,1 52089U 22029B   24106.55558562 -.00005333  00000-0 -31749-3 0  9996,2 52089  53.2173 320.7293 0001412  84.3527 275.7626 15.08812746116016,6917.964,95.439,540.806,538.852,0.0
